satname,norad_id,inclination_deg,eccentricity,mean_motion_rev_per_day,perigee_km,apogee_km,l1,l2
STARLINK-1008,44714,53.1549,0.0001517,15.43612525,434.4243238700028,436.4915685766873,1 44714U 19074B   26112.91668980  .01936202  00000+0  37859-1 0  9995,2 44714  53.1549 332.2511 0001517 107.1133  25.8578 15.43612525  5819
STARLINK-1012,44718,53.1602,0.0001535,15.42772174,436.88570733691176,438.9782405119058,1 44718U 19074F   26112.91668980  .01077965  00000+0  22256-1 0  9996,2 44718  53.1602 332.5673 0001535  91.8269  26.0566 15.42772174  5764
STARLINK-1017,44723,53.0491,0.0003174,15.2790872,479.88753847599673,484.242394684381,1 44723U 19074L   26112.81259057  .00030508  00000+0  11132-2 0  9995,2 44723  53.0491 327.2571 0003174 183.0210 177.0770 15.27908720355701
STARLINK-1019,44724,53.0338,0.0007447,15.99195126,271.6948454290732,281.6064861785226,1 44724U 19074M   26112.91668980  .00327996  55961-4  65780-3 0  9996,2 44724  53.0338 271.6716 0007447 309.7998 238.6379 15.99195126  6026
STARLINK-1020,44725,53.1617,0.0001967,15.39399795,446.54035305585876,449.22570933613224,1 44725U 19074N   26112.91668980  .01882668  00000+0  42447-1 0  9992,2 44725  53.1617 357.8711 0001967 107.2897 337.8438 15.39399795  5861
STARLINK-1036,44741,53.0447,0.0004676,15.64642623,371.10934209838433,377.4241901004398,1 44741U 19074AE  26111.90773455  .00040644  00000+0  41539-3 0  9994,2 44741  53.0447 337.8684 0004676 140.5913 219.5442 15.64642623355470
STARLINK-1039,44744,53.0644,0.0001806,15.25310544,488.6127290728282,491.09344709264315,1 44744U 19074AH  26112.10611783  .00035238  00000+0  13876-2 0  9990,2 44744  53.0644  14.9791 0001806  78.0379 282.0821 15.25310544354978
STARLINK-1042,44747,53.0424,9.72e-05,15.52113309,409.89702547234083,411.2167475638789,1 44747U 19074AL  26112.53481080  .00016672  00000+0  27825-3 0  9996,2 44747  53.0424 244.0469 0000972 336.2956  23.8008 15.52113309356877
STARLINK-1043,44748,53.052,0.0002021,15.56567221,396.23135759279467,398.97011078495507,1 44748U 19074AM  26112.80775492  .00024414  00000+0  34331-3 0  9993,2 44748  53.0520 341.1559 0002021 156.9669 203.1433 15.56567221355514
STARLINK-1046,44751,53.0515,0.0001542,15.49044858,418.4707281720948,420.56712525989406,1 44751U 19074AQ  26112.11099541  .00055270  00000+0  10040-2 0  9999,2 44751  53.0515   3.6844 0001542 333.3608  26.7320 15.49044858355130
STARLINK-1047,44752,53.0706,0.0002904,15.33557755,463.2204081779564,467.19502278870914,1 44752U 19074AR  26111.84820510  .00007005  00000+0  22405-3 0  9999,2 44752  53.0706 304.2311 0002904  35.6988 324.4207 15.33557755355969
STARLINK-1048,44753,53.0483,0.0002273,15.6126418,382.46730686042883,385.5413763143142,1 44753U 19074AS  26112.73385176  .00077611  00000+0  89550-3 0  9997,2 44753  53.0483 315.1046 0002273 209.4019 150.6867 15.61264180355861
STARLINK-1063,44768,53.1591,0.0001613,15.42203878,438.5066319882553,440.7060359877996,1 44768U 19074BH  26112.91668980  .01058742  00000+0  22312-1 0  9996,2 44768  53.1591  13.2297 0001613  90.5228 346.4844 15.42203878  5813
STARLINK-1067,44771,53.0472,0.000578,15.66025159,366.3914336224334,374.19261757602544,1 44771U 19074BL  26112.08366150  .00091971  00000+0  87720-3 0  9998,2 44771  53.0472 352.2598 0005780 144.1977 215.9426 15.66025159355296
STARLINK-1068,44772,53.0459,0.0003517,15.69414257,358.20318220495574,362.94319095019455,1 44772U 19074BM  26112.82597331  .00045006  00000+0  37880-3 0  9998,2 44772  53.0459 322.6757 0003517  89.9353 270.2066 15.69414257355760
STARLINK-1114,44927,53.045,0.0004754,15.57845176,390.6752200895771,397.1140677766289,1 44927U 20001P   26112.72610124  .00058726  00000+0  77471-3 0  9990,2 44927  53.0450 116.6897 0004754 340.0800  20.0025 15.57845176346942
STARLINK-1123,44930,53.1467,0.0001847,15.38966923,447.9019586946615,450.4239633002535,1 44930U 20001S   26112.91668980  .01939973  00000+0  44980-1 0  9998,2 44930  53.1467 139.5339 0001847  86.2916 300.5042 15.38966923  5936
STARLINK-1094,44941,53.1549,0.0001982,15.40031502,444.66370857807124,447.36880292865317,1 44941U 20001AD  26112.91668980  .01757835  00000+0  39113-1 0  9997,2 44941  53.1549 113.5762 0001982  75.5649 286.6554 15.40031502  5868
STARLINK-1122,44949,53.1569,0.0001741,15.37733362,451.62441875202967,454.0029557813359,1 44949U 20001AM  26112.91668980  .01988661  00000+0  47869-1 0  9995,2 44949  53.1569 114.0260 0001741  80.5078 294.0768 15.37733362  5805
STARLINK-1080,44961,53.0494,9.82e-05,15.54571351,402.73299858298105,404.0648922426599,1 44961U 20001AZ  26112.62513773  .00064078  00000+0  95311-3 0  9999,2 44961  53.0494  77.0302 0000982  16.4945 343.6097 15.54571351347494
STARLINK-1090,44968,53.1516,0.0001893,15.38356569,449.6759453740369,452.2614447901951,1 44968U 20001BG  26112.91668980  .01081075  00000+0  25802-1 0  9992,2 44968  53.1516 100.7525 0001893  91.0578 151.7538 15.38356569  5900
STARLINK-1132,45044,53.1546,0.0004473,15.49176742,416.0927051238996,422.173542976876,1 45044U 20006A   26112.54600421  .00053451  00000+0  96675-3 0  9992,2 45044  53.1546  45.2172 0004473  53.3882 306.7538 15.49176742343717
STARLINK-1131,45047,53.1577,0.0002766,15.40152697,443.7707930756769,447.5457166106562,1 45047U 20006D   26112.91668980  .01664709  00000+0  37103-1 0  9994,2 45047  53.1577  75.1863 0002766  87.8602 274.2646 15.40152697  5761
STARLINK-1134,45048,53.0303,0.0003591,15.49258317,416.45370459941114,421.33533263608206,1 45048U 20006E   26112.18244112  .00048064  00000+0  86826-3 0  9998,2 45048  53.0303  30.6036 0003591 345.5888  14.5017 15.49258317343872
STARLINK-1156,45054,53.1584,0.0001623,15.31106532,471.3978039030344,473.6215238101222,1 45054U 20006L   26112.31817864  .00038165  00000+0  12583-2 0  9999,2 45054  53.1584  78.2947 0001623 113.4649 246.6523 15.31106532343222
STARLINK-1159,45057,53.038,0.0002803,16.01709894,267.8198821761589,271.54665021738856,1 45057U 20006P   26111.92492124  .00374656  72219-4  65107-3 0  9991,2 45057  53.0380  14.3981 0002803 192.8968 167.1990 16.01709894344070
STARLINK-1166,45060,53.0492,0.0003088,15.5219922,408.21011949240346,412.4026621305693,1 45060U 20006S   26112.77669807  .00062716  00000+0  10167-2 0  9993,2 45060  53.0492  61.4896 0003088  59.3803 300.7510 15.52199220343496
STARLINK-1169,45061,53.1583,0.0004048,15.33694752,462.03016810817735,467.5702100564595,1 45061U 20006T   26112.31235269  .00038732  00000+0  11773-2 0  9990,2 45061  53.1583  77.8998 0004048  87.7739 272.3727 15.33694752343238
STARLINK-1171,45062,53.0435,0.0004634,15.68609143,359.7550372638343,366.00261072951344,1 45062U 20006U   26112.48495686  .00042781  00000+0  37244-3 0  9991,2 45062  53.0435  34.1163 0004634 104.7813 255.3717 15.68609143343854
STARLINK-1133,45064,53.1602,0.0001407,15.31230023,471.1774963659818,473.1051646881924,1 45064U 20006W   26112.55161483  .00030846  00000+0  10164-2 0  9996,2 45064  53.1602  54.0056 0001407 113.6935 246.4214 15.31230023343595
STARLINK-1167,45071,53.1596,0.0003875,15.33348995,463.17679595633945,468.48086947669526,1 45071U 20006AD  26112.55571808  .00028324  00000+0  87466-3 0  9998,2 45071  53.1596  53.7796 0003875  95.5741 264.5703 15.33348995343590
STARLINK-1168,45072,53.1592,0.000156,15.31191594,471.1872850799509,473.3246076792211,1 45072U 20006AE  26112.53313883  .00032490  00000+0  10710-2 0  9990,2 45072  53.1592  54.3066 0001560 110.9928 249.1240 15.31191594343585
STARLINK-1172,45074,53.1564,0.0003578,15.34205903,460.83233914164794,465.72805728868934,1 45074U 20006AG  26112.54288186  .00034498  00000+0  10337-2 0  9995,2 45074  53.1564  53.5090 0003578  99.0682 261.0726 15.34205903343595
STARLINK-1153,45080,53.1597,0.0004175,15.3332504,463.04272881319775,468.75749980364526,1 45080U 20006AN  26112.53980041  .00033963  00000+0  10465-2 0  9998,2 45080  53.1597  53.7730 0004175 111.0876 249.0573 15.33325040343595
STARLINK-1151,45081,53.0524,0.0004778,15.71150697,352.38979477061275,358.8245607068602,1 45081U 20006AP  26112.47922243  .00050648  00000+0  39569-3 0  9998,2 45081  53.0524  23.8375 0004778 118.2921 241.8579 15.71150697343993
STARLINK-1185,45087,53.1612,0.0002,15.40953616,441.92929412495687,444.6578663570526,1 45087U 20006AV  26112.14580712  .00044575  00000+0  10698-2 0  9992,2 45087  53.1612  38.4128 0002000 131.5572 228.5605 15.40953616343778
STARLINK-1183,45088,53.1609,0.0001484,15.31195259,471.2284184895161,473.26161187162324,1 45088U 20006AW  26112.50856454  .00028280  00000+0  93413-3 0  9994,2 45088  53.1609  38.9895 0001484 125.1439 234.9701 15.31195259343798
STARLINK-1152,45096,53.0384,0.0002545,15.43560709,433.8763309815058,437.3445284232257,1 45096U 20006BE  26112.82258558  .00046260  00000+0  10171-2 0  9996,2 45096  53.0384 357.4323 0002545  60.7573 299.3686 15.43560709344396
STARLINK-1184,45098,53.0528,0.0001453,15.12340758,528.0600023752586,530.0672348750313,1 45098U 20006BG  26112.84005300  .00015503  00000+0  89928-3 0  9998,2 45098  53.0528  45.6844 0001453 281.5028  78.5801 15.12340758343714
STARLINK-1193,45100,53.0506,0.00053,15.62515794,376.8107429829852,383.97478453256826,1 45100U 20006BJ  26112.17021594  .00061575  00000+0  67912-3 0  9990,2 45100  53.0506  18.8563 0005300 125.8868 234.2638 15.62515794344035
STARLINK-1143,45179,53.0431,0.0004234,15.73945212,344.7866877008646,350.4820709048581,1 45179U 20012B   26112.91668980  .00139855  00000+0  95295-3 0  9993,2 45179  53.0431 111.6998 0004234 341.8419  36.7601 15.73945212  5852
STARLINK-1202,45183,53.1549,0.0001951,15.30949462,471.64157134299876,474.31487650337385,1 45183U 20012F   26112.51172145  .00027587  00000+0  91859-3 0  9997,2 45183  53.1549 195.6653 0001951  18.5435 341.5637 15.30949462341669
STARLINK-1216,45185,53.1576,0.0001855,15.31244033,470.8288275194045,473.3702652781176,1 45185U 20012H   26112.49976961  .00028136  00000+0  92805-3 0  9997,2 45185  53.1576 195.6742 0001855  31.8952 328.2161 15.31244033341606
